{
  "type": "FeatureCollection",
  "features": [
    {
      "type": "Feature",
      "properties": {
        "norad_id": 35777,
        "name": "COSMOS 2251 DEB",
        "group": "cosmos-2251-debris",
        "lat": 30.894472713500203,
        "lon": 148.5614141427094,
        "alt_km": 1070.9434144490024,
        "timestamp": "2025-12-02T19:35:50.951229+00:00",
        "meta_object_name": "COSMOS 2251 DEB",
        "meta_object_id": "1993-036ARX",
        "meta_epoch": "2025-12-02T10:40:29.463744",
        "meta_mean_motion": 13.41287955,
        "meta_eccentricity": 0.0452803,
        "meta_inclination": 73.7709,
        "meta_ra_of_asc_node": 339.1914,
        "meta_arg_of_pericenter": 235.501,
        "meta_mean_anomaly": 282.7283,
        "meta_ephemeris_type": 0,
        "meta_classification_type": "U",
        "meta_norad_cat_id": 35777,
        "meta_element_set_no": 999,
        "meta_rev_at_epoch": 79546,
        "meta_bstar": 0.00081767,
        "meta_mean_motion_dot": 8.07e-06,
        "meta_mean_motion_ddot": 0,
        "tle_line1": "1 35777U 93036ARX 25336.44478546  .00000807  00000+0  81767-3 0  9997",
        "tle_line2": "2 35777  73.7709 339.1914 0452803 235.5010 282.7283 13.41287955795460"
      },
      "geometry": {
        "type": "Point",
        "coordinates": [
          148.5614141427094,
          30.894472713500203
        ]
      }
    },
    {
      "type": "Feature",
      "properties": {
        "norad_id": 35784,
        "name": "COSMOS 2251 DEB",
        "group": "cosmos-2251-debris",
        "lat": 73.34415833169032,
        "lon": -178.56377618998502,
        "alt_km": 745.5146909383675,
        "timestamp": "2025-12-02T19:35:50.951239+00:00",
        "meta_object_name": "COSMOS 2251 DEB",
        "meta_object_id": "1993-036ASE",
        "meta_epoch": "2025-11-30T02:37:28.354944",
        "meta_mean_motion": 14.49985321,
        "meta_eccentricity": 0.00421284,
        "meta_inclination": 74.0362,
        "meta_ra_of_asc_node": 113.4211,
        "meta_arg_of_pericenter": 246.5375,
        "meta_mean_anomaly": 113.1355,
        "meta_ephemeris_type": 0,
        "meta_classification_type": "U",
        "meta_norad_cat_id": 35784,
        "meta_element_set_no": 999,
        "meta_rev_at_epoch": 65523,
        "meta_bstar": 0.00039422851,
        "meta_mean_motion_dot": 1.515e-05,
        "meta_mean_motion_ddot": 0,
        "tle_line1": "1 35784U 93036ASE 25334.10935596  .00001515  00000+0  39423-3 0  9998",
        "tle_line2": "2 35784  74.0362 113.4211 0042128 246.5375 113.1355 14.49985321655239"
      },
      "geometry": {
        "type": "Point",
        "coordinates": [
          -178.56377618998502,
          73.34415833169032
        ]
      }
    },
    {
      "type": "Feature",
      "properties": {
        "norad_id": 35786,
        "name": "COSMOS 2251 DEB",
        "group": "cosmos-2251-debris",
        "lat": 30.115938738285877,
        "lon": -126.65292816789577,
        "alt_km": 654.8111321575916,
        "timestamp": "2025-12-02T19:35:50.951250+00:00",
        "meta_object_name": "COSMOS 2251 DEB",
        "meta_object_id": "1993-036ASG",
        "meta_epoch": "2025-12-02T12:22:11.536320",
        "meta_mean_motion": 14.66021148,
        "meta_eccentricity": 0.0035031,
        "meta_inclination": 74.016,
        "meta_ra_of_asc_node": 63.4983,
        "meta_arg_of_pericenter": 195.5115,
        "meta_mean_anomaly": 164.4984,
        "meta_ephemeris_type": 0,
        "meta_classification_type": "U",
        "meta_norad_cat_id": 35786,
        "meta_element_set_no": 999,
        "meta_rev_at_epoch": 73258,
        "meta_bstar": 0.0015898,
        "meta_mean_motion_dot": 8.775e-05,
        "meta_mean_motion_ddot": 0,
        "tle_line1": "1 35786U 93036ASG 25336.51541130  .00008775  00000+0  15898-2 0  9998",
        "tle_line2": "2 35786  74.0160  63.4983 0035031 195.5115 164.4984 14.66021148732585"
      },
      "geometry": {
        "type": "Point",
        "coordinates": [
          -126.65292816789577,
          30.115938738285877
        ]
      }
    },
    {
      "type": "Feature",
      "properties": {
        "norad_id": 35789,
        "name": "COSMOS 2251 DEB",
        "group": "cosmos-2251-debris",
        "lat": -17.58849783014841,
        "lon": 127.79154362304784,
        "alt_km": 806.4095179341521,
        "timestamp": "2025-12-02T19:35:50.951260+00:00",
        "meta_object_name": "COSMOS 2251 DEB",
        "meta_object_id": "1993-036ASK",
        "meta_epoch": "2025-11-30T08:09:35.692416",
        "meta_mean_motion": 14.35969306,
        "meta_eccentricity": 0.00469384,
        "meta_inclination": 74.039,
        "meta_ra_of_asc_node": 307.1301,
        "meta_arg_of_pericenter": 49.9649,
        "meta_mean_anomaly": 310.5607,
        "meta_ephemeris_type": 0,
        "meta_classification_type": "U",
        "meta_norad_cat_id": 35789,
        "meta_element_set_no": 999,
        "meta_rev_at_epoch": 61049,
        "meta_bstar": 0.00014941887,
        "meta_mean_motion_dot": 4.13e-06,
        "meta_mean_motion_ddot": 0,
        "tle_line1": "1 35789U 93036ASK 25334.33999644  .00000413  00000+0  14942-3 0  9997",
        "tle_line2": "2 35789  74.0390 307.1301 0046938  49.9649 310.5607 14.35969306610491"
      },
      "geometry": {
        "type": "Point",
        "coordinates": [
          127.79154362304784,
          -17.58849783014841
        ]
      }
    },
    {
      "type": "Feature",
      "properties": {
        "norad_id": 35793,
        "name": "COSMOS 2251 DEB",
        "group": "cosmos-2251-debris",
        "lat": 5.801489887562804,
        "lon": -101.98572639386478,
        "alt_km": 634.1082569235577,
        "timestamp": "2025-12-02T19:35:50.951270+00:00",
        "meta_object_name": "COSMOS 2251 DEB",
        "meta_object_id": "1993-036ASP",
        "meta_epoch": "2025-11-29T00:24:11.235744",
        "meta_mean_motion": 14.78106278,
        "meta_eccentricity": 0.00040307,
        "meta_inclination": 74.0402,
        "meta_ra_of_asc_node": 87.138,
        "meta_arg_of_pericenter": 165.1184,
        "meta_mean_anomaly": 317.1346,
        "meta_ephemeris_type": 0,
        "meta_classification_type": "U",
        "meta_norad_cat_id": 35793,
        "meta_element_set_no": 999,
        "meta_rev_at_epoch": 65594,
        "meta_bstar": 0.0021008898,
        "meta_mean_motion_dot": 0.00015203,
        "meta_mean_motion_ddot": 0,
        "tle_line1": "1 35793U 93036ASP 25333.01679671  .00015203  00000+0  21009-2 0  9995",
        "tle_line2": "2 35793  74.0402  87.1380 0004030 165.1184 317.1346 14.78106278655944"
      },
      "geometry": {
        "type": "Point",
        "coordinates": [
          -101.98572639386478,
          5.801489887562804
        ]
      }
    },
    {
      "type": "Feature",
      "properties": {
        "norad_id": 35824,
        "name": "COSMOS 2251 DEB",
        "group": "cosmos-2251-debris",
        "lat": 9.672044548128472,
        "lon": -116.98485942009273,
        "alt_km": 759.3307914140396,
        "timestamp": "2025-12-02T19:35:50.951280+00:00",
        "meta_object_name": "COSMOS 2251 DEB",
        "meta_object_id": "1993-036ASW",
        "meta_epoch": "2025-12-01T23:46:09.551712",
        "meta_mean_motion": 13.88347009,
        "meta_eccentricity": 0.02504054,
        "meta_inclination": 73.846,
        "meta_ra_of_asc_node": 67.2659,
        "meta_arg_of_pericenter": 155.2695,
        "meta_mean_anomaly": 206.0685,
        "meta_ephemeris_type": 0,
        "meta_classification_type": "U",
        "meta_norad_cat_id": 35824,
        "meta_element_set_no": 999,
        "meta_rev_at_epoch": 84078,
        "meta_bstar": 0.0016452195,
        "meta_mean_motion_dot": 2.507e-05,
        "meta_mean_motion_ddot": 0,
        "tle_line1": "1 35824U 93036ASW 25335.99038833  .00002507  00000+0  16452-2 0  9997",
        "tle_line2": "2 35824  73.8460  67.2659 0250405 155.2695 206.0685 13.88347009840783"
      },
      "geometry": {
        "type": "Point",
        "coordinates": [
          -116.98485942009273,
          9.672044548128472
        ]
      }
    },
    {
      "type": "Feature",
      "properties": {
        "norad_id": 35825,
        "name": "COSMOS 2251 DEB",
        "group": "cosmos-2251-debris",
        "lat": 73.84603717248888,
        "lon": -121.57869172645304,
        "alt_km": 1245.3222532483624,
        "timestamp": "2025-12-02T19:35:50.951291+00:00",
        "meta_object_name": "COSMOS 2251 DEB",
        "meta_object_id": "1993-036ASX",
        "meta_epoch": "2025-11-18T20:38:01.180896",
        "meta_mean_motion": 13.70825357,
        "meta_eccentricity": 0.03535711,
        "meta_inclination": 74.1138,
        "meta_ra_of_asc_node": 181.8907,
        "meta_arg_of_pericenter": 283.1782,
        "meta_mean_anomaly": 73.0118,
        "meta_ephemeris_type": 0,
        "meta_classification_type": "U",
        "meta_norad_cat_id": 35825,
        "meta_element_set_no": 999,
        "meta_rev_at_epoch": 82181,
        "meta_bstar": 0.0013809564,
        "meta_mean_motion_dot": 1.891e-05,
        "meta_mean_motion_ddot": 0,
        "tle_line1": "1 35825U 93036ASX 25322.85973589  .00001891  00000+0  13810-2 0  9995",
        "tle_line2": "2 35825  74.1138 181.8907 0353571 283.1782  73.0118 13.70825357821819"
      },
      "geometry": {
        "type": "Point",
        "coordinates": [
          -121.57869172645304,
          73.84603717248888
        ]
      }
    }
  ]
}